STARLINK-36332          
1 67862U 26034N   26062.16668981 -.00078903  00000+0 -39959-3 0  9991
2 67862  53.1575 243.9418 0000834  84.7994  22.8839 15.80888760  2818
STARLINK-36835          
1 67863U 26034P   26062.16668981 -.00020453  00000+0 -10038-3 0  9996
2 67863  53.1576 243.9314 0000967  53.2575  58.6957 15.80863176  2810
STARLINK-36831          
1 67864U 26034Q   26062.16668981  .00017209  00000+0  90685-4 0  9997
2 67864  53.1575 243.9232 0001094  55.5247  60.7074 15.80841250  2815
STARLINK-36738          
1 67865U 26034R   26062.16668981  .00020783  00000+0  10877-3 0  9993
2 67865  53.1575 243.9140 0001533  42.7179  77.8016 15.80834837  2812
STARLINK-36780          
1 67866U 26034S   26062.16668981 -.00073453  00000+0 -37115-3 0  9992
2 67866  53.1559 243.9044 0000729  77.2938  47.4486 15.80909630  2818
STARLINK-36761          
1 67867U 26034T   26062.16668981  .00007569  00000+0  41903-4 0  9997
2 67867  53.1557 243.8955 0001227  62.1094  66.9245 15.80846286  2813
STARLINK-36762          
1 67868U 26034U   26062.16668981 -.00041144  00000+0 -20555-3 0  9996
2 67868  53.1557 243.8873 0001515  55.0394  78.2309 15.80908413  2815
STARLINK-36779          
1 67869U 26034V   26062.16668981 -.00046059  00000+0 -23099-3 0  9993
2 67869  53.1555 243.8779 0001184  77.7277  59.8459 15.80878913  2814
STARLINK-36770          
1 67870U 26034W   26062.16668981 -.00061660  00000+0 -31089-3 0  9998
2 67870  53.1575 243.8600 0001150  69.6906  76.4204 15.80885987  2815
STARLINK-36769          
1 67871U 26034X   26062.16668981  .00079847  00000+0  40540-3 0  9995
2 67871  53.1575 243.8691 0000651  87.1819  54.6471 15.80816366  2818
STARLINK-36786          
1 67872U 26034Y   26062.16668981 -.00034510  00000+0 -17191-3 0  9992
2 67872  53.1575 243.8515 0000273  51.3333  99.0464 15.80886134  2813
STARLINK-36783          
1 67873U 26034Z   26062.16668981 -.00043060  00000+0 -21547-3 0  9993
2 67873  53.1558 243.8417 0000722  66.7052  87.9317 15.80897767  2810
